[{"OBJECT_NAME":"ONEWEB-0366","OBJECT_ID":"2021-090P","EPOCH":"2026-03-16T04:35:54.177792","MEAN_MOTION":13.14503213,"ECCENTRICITY":0.0001639,"INCLINATION":87.8967,"RA_OF_ASC_NODE":308.2712,"ARG_OF_PERICENTER":81.2659,"MEAN_ANOMALY":278.8656,"EPHEMERIS_TYPE":0,"CLASSIFICATION_TYPE":"U","NORAD_CAT_ID":49292,"ELEMENT_SET_NO":999,"REV_AT_EPOCH":21534,"BSTAR":-7.7798703e-5,"MEAN_MOTION_DOT":-1.6e-7,"MEAN_MOTION_DDOT":0},{"OBJECT_NAME":"ONEWEB-0367","OBJECT_ID":"2021-090Q","EPOCH":"2026-03-16T03:12:32.205312","MEAN_MOTION":13.20770726,"ECCENTRICITY":0.00018854,"INCLINATION":87.9161,"RA_OF_ASC_NODE":293.0195,"ARG_OF_PERICENTER":87.0642,"MEAN_ANOMALY":273.0707,"EPHEMERIS_TYPE":0,"CLASSIFICATION_TYPE":"U","NORAD_CAT_ID":49293,"ELEMENT_SET_NO":999,"REV_AT_EPOCH":21754,"BSTAR":1.3378087e-5,"MEAN_MOTION_DOT":1.8e-7,"MEAN_MOTION_DDOT":0},{"OBJECT_NAME":"ONEWEB-0368","OBJECT_ID":"2021-090R","EPOCH":"2026-03-16T02:33:54.120096","MEAN_MOTION":13.20770546,"ECCENTRICITY":0.00014009,"INCLINATION":87.9152,"RA_OF_ASC_NODE":293.046,"ARG_OF_PERICENTER":114.9538,"MEAN_ANOMALY":245.1741,"EPHEMERIS_TYPE":0,"CLASSIFICATION_TYPE":"U","NORAD_CAT_ID":49294,"ELEMENT_SET_NO":999,"REV_AT_EPOCH":21869,"BSTAR":0.00016124528,"MEAN_MOTION_DOT":7.9e-7,"MEAN_MOTION_DDOT":0},{"OBJECT_NAME":"ONEWEB-0369","OBJECT_ID":"2021-090S","EPOCH":"2026-03-16T03:42:51.662304","MEAN_MOTION":13.19724624,"ECCENTRICITY":0.00016796,"INCLINATION":87.9227,"RA_OF_ASC_NODE":323.5165,"ARG_OF_PERICENTER":83.6021,"MEAN_ANOMALY":276.5303,"EPHEMERIS_TYPE":0,"CLASSIFICATION_TYPE":"U","NORAD_CAT_ID":49295,"ELEMENT_SET_NO":999,"REV_AT_EPOCH":21414,"BSTAR":-8.1310955e-5,"MEAN_MOTION_DOT":-2.0e-7,"MEAN_MOTION_DDOT":0},{"OBJECT_NAME":"ONEWEB-0370","OBJECT_ID":"2021-090T","EPOCH":"2026-03-16T03:26:11.400864","MEAN_MOTION":13.20770817,"ECCENTRICITY":0.00018931,"INCLINATION":87.9162,"RA_OF_ASC_NODE":293.0189,"ARG_OF_PERICENTER":80.4174,"MEAN_ANOMALY":279.7173,"EPHEMERIS_TYPE":0,"CLASSIFICATION_TYPE":"U","NORAD_CAT_ID":49296,"ELEMENT_SET_NO":999,"REV_AT_EPOCH":21758,"BSTAR":2.2633974e-5,"MEAN_MOTION_DOT":2.2e-7,"MEAN_MOTION_DDOT":0},{"OBJECT_NAME":"ONEWEB-0371","OBJECT_ID":"2021-090U","EPOCH":"2026-03-16T03:54:14.062464","MEAN_MOTION":13.19725396,"ECCENTRICITY":0.00018429,"INCLINATION":87.9222,"RA_OF_ASC_NODE":323.5041,"ARG_OF_PERICENTER":81.384,"MEAN_ANOMALY":278.7502,"EPHEMERIS_TYPE":0,"CLASSIFICATION_TYPE":"U","NORAD_CAT_ID":49297,"ELEMENT_SET_NO":999,"REV_AT_EPOCH":21418,"BSTAR":-5.802592e-6,"MEAN_MOTION_DOT":1.1e-7,"MEAN_MOTION_DDOT":0},{"OBJECT_NAME":"ONEWEB-0372","OBJECT_ID":"2021-090V","EPOCH":"2026-03-16T01:20:59.816832","MEAN_MOTION":13.20771381,"ECCENTRICITY":0.00017314,"INCLINATION":87.9161,"RA_OF_ASC_NODE":293.0366,"ARG_OF_PERICENTER":89.6448,"MEAN_ANOMALY":270.4884,"EPHEMERIS_TYPE":0,"CLASSIFICATION_TYPE":"U","NORAD_CAT_ID":49298,"ELEMENT_SET_NO":999,"REV_AT_EPOCH":21754,"BSTAR":-8.1607399e-5,"MEAN_MOTION_DOT":-2.0e-7,"MEAN_MOTION_DDOT":0},{"OBJECT_NAME":"ONEWEB-0373","OBJECT_ID":"2021-090W","EPOCH":"2026-03-16T03:48:54.378144","MEAN_MOTION":13.20771593,"ECCENTRICITY":0.00016097,"INCLINATION":87.9154,"RA_OF_ASC_NODE":293.0207,"ARG_OF_PERICENTER":82.9546,"MEAN_ANOMALY":277.1771,"EPHEMERIS_TYPE":0,"CLASSIFICATION_TYPE":"U","NORAD_CAT_ID":49299,"ELEMENT_SET_NO":999,"REV_AT_EPOCH":21874,"BSTAR":0.00023445382,"MEAN_MOTION_DOT":1.08e-6,"MEAN_MOTION_DDOT":0},{"OBJECT_NAME":"ONEWEB-0374","OBJECT_ID":"2021-090X","EPOCH":"2026-03-16T04:17:35.931840","MEAN_MOTION":13.1452435,"ECCENTRICITY":0.00014034,"INCLINATION":87.8976,"RA_OF_ASC_NODE":308.2584,"ARG_OF_PERICENTER":85.7623,"MEAN_ANOMALY":274.3667,"EPHEMERIS_TYPE":0,"CLASSIFICATION_TYPE":"U","NORAD_CAT_ID":49300,"ELEMENT_SET_NO":999,"REV_AT_EPOCH":21534,"BSTAR":0.0075084515,"MEAN_MOTION_DOT":2.798e-5,"MEAN_MOTION_DDOT":0},{"OBJECT_NAME":"ONEWEB-0375","OBJECT_ID":"2021-090Y","EPOCH":"2026-03-16T03:30:44.261568","MEAN_MOTION":13.2077116,"ECCENTRICITY":0.00012279,"INCLINATION":87.9163,"RA_OF_ASC_NODE":293.0114,"ARG_OF_PERICENTER":74.0428,"MEAN_ANOMALY":286.084,"EPHEMERIS_TYPE":0,"CLASSIFICATION_TYPE":"U","NORAD_CAT_ID":49301,"ELEMENT_SET_NO":999,"REV_AT_EPOCH":21824,"BSTAR":3.1045362e-5,"MEAN_MOTION_DOT":2.6e-7,"MEAN_MOTION_DDOT":0},{"OBJECT_NAME":"ONEWEB-0376","OBJECT_ID":"2021-090Z","EPOCH":"2026-03-16T03:51:56.810016","MEAN_MOTION":13.19725521,"ECCENTRICITY":0.00018577,"INCLINATION":87.923,"RA_OF_ASC_NODE":323.4977,"ARG_OF_PERICENTER":88.7124,"MEAN_ANOMALY":271.4222,"EPHEMERIS_TYPE":0,"CLASSIFICATION_TYPE":"U","NORAD_CAT_ID":49302,"ELEMENT_SET_NO":999,"REV_AT_EPOCH":21418,"BSTAR":4.4268964e-5,"MEAN_MOTION_DOT":3.1e-7,"MEAN_MOTION_DDOT":0},{"OBJECT_NAME":"ONEWEB-0377","OBJECT_ID":"2021-090AA","EPOCH":"2026-03-16T03:10:28.382880","MEAN_MOTION":13.20770554,"ECCENTRICITY":0.00017144,"INCLINATION":87.9159,"RA_OF_ASC_NODE":293.0162,"ARG_OF_PERICENTER":79.359,"MEAN_ANOMALY":280.7737,"EPHEMERIS_TYPE":0,"CLASSIFICATION_TYPE":"U","NORAD_CAT_ID":49303,"ELEMENT_SET_NO":999,"REV_AT_EPOCH":21823,"BSTAR":4.4773071e-5,"MEAN_MOTION_DOT":3.1e-7,"MEAN_MOTION_DDOT":0},{"OBJECT_NAME":"ONEWEB-0378","OBJECT_ID":"2021-090AB","EPOCH":"2026-03-16T03:42:16.833600","MEAN_MOTION":13.20770778,"ECCENTRICITY":0.0001499,"INCLINATION":87.9155,"RA_OF_ASC_NODE":293.0218,"ARG_OF_PERICENTER":85.6455,"MEAN_ANOMALY":274.4849,"EPHEMERIS_TYPE":0,"CLASSIFICATION_TYPE":"U","NORAD_CAT_ID":49304,"ELEMENT_SET_NO":999,"REV_AT_EPOCH":21750,"BSTAR":0.0001260822,"MEAN_MOTION_DOT":6.4e-7,"MEAN_MOTION_DDOT":0},{"OBJECT_NAME":"ONEWEB-0379","OBJECT_ID":"2021-090AC","EPOCH":"2026-03-16T04:10:47.600256","MEAN_MOTION":13.14500336,"ECCENTRICITY":0.00014518,"INCLINATION":87.8979,"RA_OF_ASC_NODE":308.2692,"ARG_OF_PERICENTER":83.2665,"MEAN_ANOMALY":276.863,"EPHEMERIS_TYPE":0,"CLASSIFICATION_TYPE":"U","NORAD_CAT_ID":49305,"ELEMENT_SET_NO":999,"REV_AT_EPOCH":21534,"BSTAR":0.00028576097,"MEAN_MOTION_DOT":1.19e-6,"MEAN_MOTION_DDOT":0},{"OBJECT_NAME":"ONEWEB-0380","OBJECT_ID":"2021-090AD","EPOCH":"2026-03-16T03:47:24.040032","MEAN_MOTION":13.19724883,"ECCENTRICITY":0.0001632,"INCLINATION":87.9222,"RA_OF_ASC_NODE":323.5135,"ARG_OF_PERICENTER":72.5754,"MEAN_ANOMALY":287.5557,"EPHEMERIS_TYPE":0,"CLASSIFICATION_TYPE":"U","NORAD_CAT_ID":49306,"ELEMENT_SET_NO":999,"REV_AT_EPOCH":21415,"BSTAR":-4.2518142e-5,"MEAN_MOTION_DOT":-4.0e-8,"MEAN_MOTION_DDOT":0},{"OBJECT_NAME":"ONEWEB-0381","OBJECT_ID":"2021-090AE","EPOCH":"2026-03-16T03:05:43.570464","MEAN_MOTION":13.20770183,"ECCENTRICITY":0.0001405,"INCLINATION":87.9163,"RA_OF_ASC_NODE":293.0207,"ARG_OF_PERICENTER":81.6671,"MEAN_ANOMALY":278.4622,"EPHEMERIS_TYPE":0,"CLASSIFICATION_TYPE":"U","NORAD_CAT_ID":49307,"ELEMENT_SET_NO":999,"REV_AT_EPOCH":21754,"BSTAR":-3.857112e-6,"MEAN_MOTION_DOT":1.1e-7,"MEAN_MOTION_DDOT":0},{"OBJECT_NAME":"ONEWEB-0382","OBJECT_ID":"2021-090AF","EPOCH":"2026-03-16T02:47:32.250336","MEAN_MOTION":13.20770496,"ECCENTRICITY":0.00013469,"INCLINATION":87.9163,"RA_OF_ASC_NODE":293.0195,"ARG_OF_PERICENTER":87.0145,"MEAN_ANOMALY":273.1142,"EPHEMERIS_TYPE":0,"CLASSIFICATION_TYPE":"U","NORAD_CAT_ID":49308,"ELEMENT_SET_NO":999,"REV_AT_EPOCH":21753,"BSTAR":7.6578721e-5,"MEAN_MOTION_DOT":4.4e-7,"MEAN_MOTION_DDOT":0}]
