ONEWEB-0366             
1 49292U 21090P   26075.19159928 -.00000016  00000+0 -77799-4 0  9993
2 49292  87.8967 308.2712 0001639  81.2659 278.8656 13.14503213215346
ONEWEB-0367             
1 49293U 21090Q   26075.13370608  .00000018  00000+0  13378-4 0  9991
2 49293  87.9161 293.0195 0001885  87.0642 273.0707 13.20770726217549
ONEWEB-0368             
1 49294U 21090R   26075.10687639  .00000079  00000+0  16125-3 0  9993
2 49294  87.9152 293.0460 0001400 114.9538 245.1741 13.20770546218697
ONEWEB-0369             
1 49295U 21090S   26075.15476461 -.00000020  00000+0 -81311-4 0  9996
2 49295  87.9227 323.5165 0001679  83.6021 276.5303 13.19724624214141
ONEWEB-0370             
1 49296U 21090T   26075.14318751  .00000022  00000+0  22634-4 0  9996
2 49296  87.9162 293.0189 0001893  80.4174 279.7173 13.20770817217587
ONEWEB-0371             
1 49297U 21090U   26075.16266276  .00000011  00000+0 -58026-5 0  9997
2 49297  87.9222 323.5041 0001842  81.3840 278.7502 13.19725396214183
ONEWEB-0372             
1 49298U 21090V   26075.05624788 -.00000020  00000+0 -81607-4 0  9993
2 49298  87.9161 293.0366 0001731  89.6448 270.4884 13.20771381217541
ONEWEB-0373             
1 49299U 21090W   26075.15896271  .00000108  00000+0  23445-3 0  9993
2 49299  87.9154 293.0207 0001609  82.9546 277.1771 13.20771593218744
ONEWEB-0374             
1 49300U 21090X   26075.17888810  .00002798  00000+0  75085-2 0  9991
2 49300  87.8976 308.2584 0001403  85.7623 274.3667 13.14524350215340
ONEWEB-0375             
1 49301U 21090Y   26075.14634562  .00000026  00000+0  31045-4 0  9994
2 49301  87.9163 293.0114 0001227  74.0428 286.0840 13.20771160218243
ONEWEB-0376             
1 49302U 21090Z   26075.16107419  .00000031  00000+0  44269-4 0  9991
2 49302  87.9230 323.4977 0001857  88.7124 271.4222 13.19725521214187
ONEWEB-0377             
1 49303U 21090AA  26075.13227295  .00000031  00000+0  44773-4 0  9994
2 49303  87.9159 293.0162 0001714  79.3590 280.7737 13.20770554218233
ONEWEB-0378             
1 49304U 21090AB  26075.15436150  .00000064  00000+0  12608-3 0  9996
2 49304  87.9155 293.0218 0001499  85.6455 274.4849 13.20770778217503
ONEWEB-0379             
1 49305U 21090AC  26075.17416204  .00000119  00000+0  28576-3 0  9999
2 49305  87.8979 308.2692 0001451  83.2665 276.8630 13.14500336215345
ONEWEB-0380             
1 49306U 21090AD  26075.15791713 -.00000004  00000+0 -42518-4 0  9997
2 49306  87.9222 323.5135 0001632  72.5754 287.5557 13.19724883214156
ONEWEB-0381             
1 49307U 21090AE  26075.12897651  .00000011  00000+0 -38571-5 0  9995
2 49307  87.9163 293.0207 0001405  81.6671 278.4622 13.20770183217543
ONEWEB-0382             
1 49308U 21090AF  26075.11634549  .00000044  00000+0  76579-4 0  9994
2 49308  87.9163 293.0195 0001346  87.0145 273.1142 13.20770496217535
